GLOBALSTAR M063         
1 26081U 00008A   24202.92834883  .00000024  00000+0  15660-2 0  9995
2 26081  51.9940 263.9824 0004355  43.0657 127.6992 11.86157979118261
GLOBALSTAR M062         
1 26082U 00008B   24202.87933733 -.00000179  00000+0 -57837-3 0  9990
2 26082  51.9873 350.0408 0007799 123.6259 359.9286 12.43440067455404
GLOBALSTAR M060         
1 26083U 00008C   24202.94832510 -.00000073  00000+0  17949-3 0  9992
2 26083  52.0008 262.9862 0003724 172.7334 359.0093 12.17637237112017
GLOBALSTAR M064         
1 26084U 00008D   24202.70555695 -.00000085  00000+0 -27506-4 0  9998
2 26084  52.0050   7.3028 0002131 123.3657 236.7379 11.88520349127680
GLOBALSTAR M065         
1 31571U 07020A   24202.92724303 -.00000083  00000+0  11457-3 0  9998
2 31571  51.9879 154.4887 0009877 295.7487 130.4755 12.61974543791585
GLOBALSTAR M069         
1 31573U 07020C   24202.91599885 -.00000067  00000+0  20509-3 0  9994
2 31573  51.9948 110.3054 0000911  29.9869  47.9149 12.62277520792719
GLOBALSTAR M072         
1 31574U 07020D   24202.91189144 -.00000083  00000+0  11437-3 0  9996
2 31574  52.0057 206.2894 0000495 281.6790 155.0246 12.62260231790984
GLOBALSTAR M071         
1 31576U 07020F   24202.94310909 -.00000068  00000+0  19791-3 0  9990
2 31576  52.0063 115.4178 0000994  57.8163  21.3208 12.62270140453901
